KUZGTU 1 (RS47S)        
1 57217U 23091AV  26190.85746766  .00008760  00000+0  30016-3 0  9997
2 57217  97.5056 255.5743 0010649  25.1441 335.0316 15.30391646167849
SONATE-2                
1 59112U 24043Q   26189.95391721  .00032794  00000+0  39918-3 0  9991
2 59112  97.5551 341.7151 0006851 125.1780 235.0119 15.60447177131286
MESAT1                  
1 60209U 24125G   26190.04570977  .00048984  00000+0  48115-3 0  9992
2 60209  97.2271  48.0631 0010930 131.4218 228.7983 15.65828598112989
OOV-CUBE (TUBSAT-30)    
1 60240U 24128F   26190.61158507  .00001327  00000+0  11249-3 0  9992
2 60240  61.9941 147.3745 0041807 138.6969 221.7297 15.02859618109484
COLIBRI-S (RS67S)       
1 61746U 24199M   26190.74837616  .00017227  00000+0  32292-3 0  9998
2 61746  97.2970  64.8190 0008281 181.5456 178.5771 15.48688010140908
HORS 3 (RS81S)          
1 61753U 24199U   26190.73002076  .00029458  00000+0  41422-3 0  9993
2 61753  97.2950  67.0418 0006435 173.3060 186.8282 15.56618887141062
HORS 4 (RS82S)          
1 61754U 24199V   26190.74660144  .00042721  00000+0  48977-3 0  9991
2 61754  97.2890  68.4153 0006409 163.7558 196.3907 15.61960706141160
SIT-2086                
1 61764U 24199AF  26190.67132361  .00029475  00000+0  44413-3 0  9991
2 61764  97.2908  67.3801 0007564 161.6662 198.4866 15.54723694137926
HYPERVIEW 1G (RS66S)    
1 61772U 24199AP  26190.74637862  .00159831  00000+0  72497-3 0  9997
2 61772  97.2816  71.7182 0008043 158.8906 201.2697 15.83438080138230
ALTAIR (RS65S)          
1 61779U 24199AW  26190.76485464  .00005837  00000+0  16096-3 0  9994
2 61779  97.3008  59.9700 0011457 217.3378 142.7071 15.37435699140580
ASRTU-1 (AO-123)        
1 61781U 24199AY  26190.77325855  .00005441  00000+0  15718-3 0  9996
2 61781  97.2978  59.2421 0012443 221.4124 138.6178 15.36001938137393
SAMSAT-IONOSPHERE (RS7*)
1 61784U 24199BB  26190.78667690  .00039590  00000+0  49399-3 0  9990
2 61784  97.2913  67.2350 0008560 178.1919 181.9371 15.59739000141080
RTU MIREA 1 (RS51S)     
1 61785U 24199BC  26190.75724353  .00054242  00000+0  57814-3 0  9990
2 61785  97.2900  68.1614 0008725 172.4475 187.6917 15.63766145137996
TEVEL2-4                
1 63213U 25052D   26190.15084270  .00014785  00000+0  43162-3 0  9997
2 63213  97.3875  86.5872 0004043  63.9062 296.2597 15.35417814 73480
TEVEL2-5                
1 63214U 25052E   26189.65245370  .00014062  00000+0  41324-3 0  9997
2 63214  97.3873  86.0291 0004130  66.2017 293.9660 15.35218873 73403
TEVEL2-6                
1 63215U 25052F   26190.77333909  .00013669  00000+0  40184-3 0  9994
2 63215  97.3877  87.1376 0003968  66.9512 293.2149 15.35215103 73575
TEVEL2-1                
1 63217U 25052H   26187.68057351  .00015226  00000+0  45647-3 0  9996
2 63217  97.3844  83.6383 0004748  76.8203 283.3570 15.34567986 73086
TEVEL2-3                
1 63218U 25052J   26189.69578096  .00013069  00000+0  39086-3 0  9997
2 63218  97.3853  85.6806 0004446  73.4678 286.7053 15.34682438 73390
TEVEL2-2                
1 63219U 25052K   26189.50651823  .00013021  00000+0  39012-3 0  9995
2 63219  97.3852  85.4689 0004704  73.9445 286.2316 15.34625790 73363
OTP-2                   
1 63235U 25052AB  26189.69578859  .00004852  00000+0  20138-3 0  9991
2 63235  97.3844  81.8058 0008308  88.6263 271.5926 15.24281264 73140
TEVEL2-9                
1 63237U 25052AD  26189.64245198  .00012819  00000+0  40918-3 0  9995
2 63237  97.3915  84.9331 0008135  74.7614 285.4527 15.32589963 73319
TEVEL2-7                
1 63238U 25052AE  26190.14472437  .00012598  00000+0  40596-3 0  9997
2 63238  97.3915  85.3410 0008177  73.4228 286.7911 15.32290225 73384
TEVEL2-8                
1 63239U 25052AF  26189.69605479  .00011621  00000+0  37502-3 0  9999
2 63239  97.3912  84.8694 0008175  75.3495 284.8653 15.32263765 73319
INNOSAT 16 (RS92S7)     
1 64878U 25155C   26190.76219536  .00004128  00000+0  16459-3 0  9990
2 64878  97.4574 157.8228 0012422 104.6271 255.6345 15.25700694 84119
GEOSCAN 6 (RS92S6)      
1 64879U 25155D   26190.73980625  .00007128  00000+0  24337-3 0  9999
2 64879  97.4564 159.3867 0010023  97.3147 262.9233 15.30584096 84210
GEOSCAN 1 (RS92S1)      
1 64880U 25155E   26190.73315315  .00008496  00000+0  28386-3 0  9996
2 64880  97.4560 159.5481 0009957  97.5042 262.7331 15.31225419 84222
239ALFEROV (RS61S)      
1 64881U 25155F   26190.73479953  .00011449  00000+0  35464-3 0  9993
2 64881  97.4559 160.1894 0009639  96.9741 263.2598 15.33568005 84261
GEOSCAN 2 (RS92S2)      
1 64890U 25155Q   26190.78828512  .00008472  00000+0  28083-3 0  9998
2 64890  97.4558 159.7649 0009236  87.2888 272.9410 15.31485340 84246
GEOSCAN 5 (RS92S5)      
1 64891U 25155R   26190.78444227  .00010235  00000+0  31436-3 0  9992
2 64891  97.4551 160.3855 0008652 100.7935 259.4282 15.33877174 84285
GEOSCAN 4 (RS92S4)      
1 64892U 25155S   26190.76629248  .00010709  00000+0  32710-3 0  9991
2 64892  97.4555 160.4224 0008612 101.0652 259.1560 15.34042872 84283
